TEVEL2-8                
1 63239U 25052AF  26068.66815442  .00019130  00000+0  69304-3 0  9993
2 63239  97.4055 324.2923 0008031 124.9191 235.2804 15.28392908 54807
STARLINK-34223          
1 64336U 25124V   26068.81796389  .00025547  00000+0  93483-3 0  9991
2 64336  42.9923 117.2018 0000917 311.0752  49.0020 15.27573927 41849
